IRIDIUM 119             
1 42959U 17061E   23286.87905499  .00000881  00000+0  30754-3 0  9994
2 42959  86.3939  73.6703 0001838  82.4549 277.6855 14.34216610314733
IRIDIUM 107             
1 42960U 17061F   23286.89808427  .00000855  00000+0  29809-3 0  9991
2 42960  86.3938  73.6777 0001781  89.3638 270.7762 14.34219788314748
IRIDIUM 132             
1 42961U 17061G   23286.90442671  .00001319  00000+0  46400-3 0  9991
2 42961  86.3937  73.6614 0001834  87.3879 272.7527 14.34217719314745
IRIDIUM 136             
1 42962U 17061H   23287.42451378  .00000673  00000+0  23314-3 0  9995
2 42962  86.3939  73.4457 0002134  85.6573 274.4867 14.34218917314834
IRIDIUM 139             
1 42963U 17061J   23286.45410356 -.00000078  00000+0 -34853-4 0  9991
2 42963  86.3937  73.8986 0001656  89.5332 270.6054 14.34215237314702
IRIDIUM 125             
1 42964U 17061K   23286.92979362  .00000793  00000+0  27620-3 0  9996
2 42964  86.3941  73.7424 0001888  85.0788 275.0623 14.34220660314782
IRIDIUM 135             
1 43070U 17083A   23286.76438598  .00000652  00000+0  22581-3 0  9997
2 43070  86.4031  10.5132 0002214 102.0283 258.1161 14.34215240304057
IRIDIUM 138             
1 43071U 17083B   23286.78975028  .00000756  00000+0  26290-3 0  9990
2 43071  86.4020  10.2506 0001999  87.0955 273.0470 14.34214915304041
